CORVUS BC4              
1 43767U 18099K   26068.65923737  .00005714  00000+0  33980-3 0  9990
2 43767  97.4206 114.5457 0008046 356.5821   3.5354 15.11615710397368
STARLINK-3726           
1 52122U 22029AL  26068.32460875 -.00001278  00000+0 -62235-4 0  9995
2 52122  53.2169  80.7606 0001334  88.5591 271.5554 15.08829473220734
